0 IRIDIUM 33 DEB
1 34374U 97051FS  13282.42385539  .00015279  00000-0  43864-2 0  3364
2 34374 086.4874 151.3406 0029294 286.9397 193.4334 14.44554010243295
0 IRIDIUM 33 DEB
1 34374U 97051FS  13282.84115781  .00013103  00000-0  37619-2 0  3376
2 34374 086.4875 151.1679 0029313 285.4495 203.6804 14.44557507243358
0 IRIDIUM 33 DEB
1 34374U 97051FS  13283.93555872  .00012468  00000-0  35782-2 0  3389
2 34374 086.4878 150.7146 0029240 281.5332 135.3434 14.44578417243512
0 IRIDIUM 33 DEB
1 34374U 97051FS  13286.10167469  .00011029  00000-0  31624-2 0  3408
2 34374 086.4876 149.8173 0029144 273.6787 241.0314 14.44623375243839
0 IRIDIUM 33 DEB
1 34374U 97051FS  13287.41093873  .00011989  00000-0  34362-2 0  3418
2 34374 086.4873 149.2749 0029075 268.9931 210.4487 14.44645082244011
0 IRIDIUM 33 DEB
1 34374U 97051FS  13288.38135538  .00017411  00000-0  49851-2 0  3426
2 34374 086.4872 148.8724 0029111 265.4258 217.7222 14.44677144244159
0 IRIDIUM 33 DEB
1 34374U 97051FS  13289.42026686  .00015013  00000-0  42971-2 0  3438
2 34374 086.4867 148.4420 0029102 261.6656 221.2999 14.44702706244303
0 IRIDIUM 33 DEB
1 34374U 97051FS  13290.65507481  .00015611  00000-0  44653-2 0  3446
2 34374 086.4862 147.9302 0029090 257.2330 163.8523 14.44731616244482
0 IRIDIUM 33 DEB
1 34374U 97051FS  13291.84551123  .00011929  00000-0  34106-2 0  3451
2 34374 086.4857 147.4370 0029148 252.9400 235.7690 14.44760581244656
0 IRIDIUM 33 DEB
1 34374U 97051FS  13293.09109877  .00012714  00000-0  36330-2 0  3460
2 34374 086.4854 146.9206 0029126 248.4568 234.6611 14.44788848244833
0 IRIDIUM 33 DEB
1 34374U 97051FS  13294.33848528  .00015562  00000-0  44435-2 0  3471
2 34374 086.4853 146.4035 0029226 243.9737 243.0362 14.44813707245017
0 IRIDIUM 33 DEB
1 34374U 97051FS  13295.37599603  .00016755  00000-0  47815-2 0  3484
2 34374 086.4855 145.9735 0029226 240.3058 239.7573 14.44838210245165
